{"type": "FeatureCollection", "features": [{"type": "Feature", "properties": {"norad_id": 26766, "name": "INTELSAT 10 (IS-10)", "group": "intelsat", "lat": -8.024870226282854, "lon": -7.632636403834886, "alt_km": 36115.965187614944, "timestamp": "2025-12-02T06:27:52.688420+00:00", "meta": {"OBJECT_NAME": "INTELSAT 10 (IS-10)", "OBJECT_ID": "2001-019A", "EPOCH": "2025-12-01T11:39:24.752160", "MEAN_MOTION": 0.99077519, "ECCENTRICITY": 0.00076044, "INCLINATION": 8.6009, "RA_OF_ASC_NODE": 61.2665, "ARG_OF_PERICENTER": 217.709, "MEAN_ANOMALY": 153.5892, "EPHEMERIS_TYPE": 0, "CLASSIFICATION_TYPE": "U", "NORAD_CAT_ID": 26766, "ELEMENT_SET_NO": 999, "REV_AT_EPOCH": 4362, "BSTAR": 0, "MEAN_MOTION_DOT": -9.5e-07, "MEAN_MOTION_DDOT": 0}, "tle": {"line1": "1 26766U 01019A   25335.48570315 -.00000095  00000+0  00000+0 0  9992", "line2": "2 26766   8.6009  61.2665 0007604 217.7090 153.5892  0.99077519 43626"}}, "geometry": {"type": "Point", "coordinates": [-7.632636403834886, -8.024870226282854]}}, {"type": "Feature", "properties": {"norad_id": 26900, "name": "INTELSAT 902 (IS-902)", "group": "intelsat", "lat": 3.909234001165767, "lon": 118.02606997710267, "alt_km": 35798.06296474895, "timestamp": "2025-12-02T06:27:52.688443+00:00", "meta": {"OBJECT_NAME": "INTELSAT 902 (IS-902)", "OBJECT_ID": "2001-039A", "EPOCH": "2025-12-01T16:59:59.311104", "MEAN_MOTION": 1.00270327, "ECCENTRICITY": 0.000431, "INCLINATION": 5.6187, "RA_OF_ASC_NODE": 74.2002, "ARG_OF_PERICENTER": 175.119, "MEAN_ANOMALY": 26.3816, "EPHEMERIS_TYPE": 0, "CLASSIFICATION_TYPE": "U", "NORAD_CAT_ID": 26900, "ELEMENT_SET_NO": 999, "REV_AT_EPOCH": 8871, "BSTAR": 0, "MEAN_MOTION_DOT": -2.63e-06, "MEAN_MOTION_DDOT": 0}, "tle": {"line1": "1 26900U 01039A   25335.70832536 -.00000263  00000+0  00000+0 0  9992", "line2": "2 26900   5.6187  74.2002 0004310 175.1190  26.3816  1.00270327 88715"}}, "geometry": {"type": "Point", "coordinates": [118.02606997710267, 3.909234001165767]}}, {"type": "Feature", "properties": {"norad_id": 27380, "name": "INTELSAT 904 (IS-904)", "group": "intelsat", "lat": 5.838688121737495, "lon": 136.68786870607477, "alt_km": 35789.69278779693, "timestamp": "2025-12-02T06:27:52.688458+00:00", "meta": {"OBJECT_NAME": "INTELSAT 904 (IS-904)", "OBJECT_ID": "2002-007A", "EPOCH": "2025-12-01T03:23:28.935168", "MEAN_MOTION": 1.00269987, "ECCENTRICITY": 0.0001425, "INCLINATION": 6.4235, "RA_OF_ASC_NODE": 71.564, "ARG_OF_PERICENTER": 194.1406, "MEAN_ANOMALY": 183.9501, "EPHEMERIS_TYPE": 0, "CLASSIFICATION_TYPE": "U", "NORAD_CAT_ID": 27380, "ELEMENT_SET_NO": 999, "REV_AT_EPOCH": 4978, "BSTAR": 0, "MEAN_MOTION_DOT": -2.05e-06, "MEAN_MOTION_DDOT": 0}, "tle": {"line1": "1 27380U 02007A   25335.14130712 -.00000205  00000+0  00000+0 0  9992", "line2": "2 27380   6.4235  71.5640 0001425 194.1406 183.9501  1.00269987 49789"}}, "geometry": {"type": "Point", "coordinates": [136.68786870607477, 5.838688121737495]}}, {"type": "Feature", "properties": {"norad_id": 27426, "name": "DIRECTV 5 (TEMPO 1)", "group": "intelsat", "lat": -1.43847799540241, "lon": 58.269366020532615, "alt_km": 35800.29640019148, "timestamp": "2025-12-02T06:27:52.688472+00:00", "meta": {"OBJECT_NAME": "DIRECTV 5 (TEMPO 1)", "OBJECT_ID": "2002-023A", "EPOCH": "2025-12-01T19:48:55.136160", "MEAN_MOTION": 1.0027113, "ECCENTRICITY": 0.000365, "INCLINATION": 4.3719, "RA_OF_ASC_NODE": 77.7811, "ARG_OF_PERICENTER": 186.9558, "MEAN_ANOMALY": 353.3097, "EPHEMERIS_TYPE": 0, "CLASSIFICATION_TYPE": "U", "NORAD_CAT_ID": 27426, "ELEMENT_SET_NO": 999, "REV_AT_EPOCH": 8614, "BSTAR": 0, "MEAN_MOTION_DOT": -3.6e-07, "MEAN_MOTION_DDOT": 0}, "tle": {"line1": "1 27426U 02023A   25335.82563815 -.00000036  00000+0  00000+0 0  9992", "line2": "2 27426   4.3719  77.7811 0003650 186.9558 353.3097  1.00271130 86148"}}, "geometry": {"type": "Point", "coordinates": [58.269366020532615, -1.43847799540241]}}, {"type": "Feature", "properties": {"norad_id": 27438, "name": "INTELSAT 905 (IS-905)", "group": "intelsat", "lat": -4.079941493326538, "lon": 31.324487794161183, "alt_km": 35795.08332417091, "timestamp": "2025-12-02T06:27:52.688484+00:00", "meta": {"OBJECT_NAME": "INTELSAT 905 (IS-905)", "OBJECT_ID": "2002-027A", "EPOCH": "2025-12-01T11:26:53.712384", "MEAN_MOTION": 1.00272635, "ECCENTRICITY": 0.00030034, "INCLINATION": 6.255, "RA_OF_ASC_NODE": 72.1839, "ARG_OF_PERICENTER": 185.4215, "MEAN_ANOMALY": 207.5171, "EPHEMERIS_TYPE": 0, "CLASSIFICATION_TYPE": "U", "NORAD_CAT_ID": 27438, "ELEMENT_SET_NO": 999, "REV_AT_EPOCH": 4938, "BSTAR": 0, "MEAN_MOTION_DOT": 1.14e-06, "MEAN_MOTION_DDOT": 0}, "tle": {"line1": "1 27438U 02027A   25335.47701056  .00000114  00000+0  00000+0 0  9997", "line2": "2 27438   6.2550  72.1839 0003003 185.4215 207.5171  1.00272635 49389"}}, "geometry": {"type": "Point", "coordinates": [31.324487794161183, -4.079941493326538]}}, {"type": "Feature", "properties": {"norad_id": 27445, "name": "GALAXY 3C (G-3C)", "group": "intelsat", "lat": -0.3810120565672206, "lon": 73.46130383381771, "alt_km": 35787.63016556426, "timestamp": "2025-12-02T06:27:52.688496+00:00", "meta": {"OBJECT_NAME": "GALAXY 3C (G-3C)", "OBJECT_ID": "2002-030A", "EPOCH": "2025-12-01T11:39:00.052992", "MEAN_MOTION": 1.00270576, "ECCENTRICITY": 0.00013263, "INCLINATION": 3.2337, "RA_OF_ASC_NODE": 80.6211, "ARG_OF_PERICENTER": 94.2769, "MEAN_ANOMALY": 335.604, "EPHEMERIS_TYPE": 0, "CLASSIFICATION_TYPE": "U", "NORAD_CAT_ID": 27445, "ELEMENT_SET_NO": 999, "REV_AT_EPOCH": 4451, "BSTAR": 0, "MEAN_MOTION_DOT": -1.31e-06, "MEAN_MOTION_DDOT": 0}, "tle": {"line1": "1 27445U 02030A   25335.48541728 -.00000131  00000+0  00000+0 0  9998", "line2": "2 27445   3.2337  80.6211 0001326  94.2769 335.6040  1.00270576 44512"}}, "geometry": {"type": "Point", "coordinates": [73.46130383381771, -0.3810120565672206]}}, {"type": "Feature", "properties": {"norad_id": 27513, "name": "INTELSAT 906 (IS-906)", "group": "intelsat", "lat": 2.0397565633207226, "lon": -127.49465890380212, "alt_km": 35763.96737048426, "timestamp": "2025-12-02T06:27:52.688508+00:00", "meta": {"OBJECT_NAME": "INTELSAT 906 (IS-906)", "OBJECT_ID": "2002-041A", "EPOCH": "2025-12-01T19:15:20.505888", "MEAN_MOTION": 1.00272855, "ECCENTRICITY": 0.0006106, "INCLINATION": 5.3014, "RA_OF_ASC_NODE": 75.3609, "ARG_OF_PERICENTER": 190.8107, "MEAN_ANOMALY": 157.7085, "EPHEMERIS_TYPE": 0, "CLASSIFICATION_TYPE": "U", "NORAD_CAT_ID": 27513, "ELEMENT_SET_NO": 999, "REV_AT_EPOCH": 8504, "BSTAR": 0, "MEAN_MOTION_DOT": 3.3e-07, "MEAN_MOTION_DDOT": 0}, "tle": {"line1": "1 27513U 02041A   25335.80232067  .00000033  00000+0  00000+0 0  9995", "line2": "2 27513   5.3014  75.3609 0006106 190.8107 157.7085  1.00272855 85042"}}, "geometry": {"type": "Point", "coordinates": [-127.49465890380212, 2.0397565633207226]}}, {"type": "Feature", "properties": {"norad_id": 27954, "name": "GALAXY 13 (HORIZONS-1)", "group": "intelsat", "lat": -0.8215268701235139, "lon": 18.328848163141338, "alt_km": 35792.22587283268, "timestamp": "2025-12-02T06:27:52.688520+00:00", "meta": {"OBJECT_NAME": "GALAXY 13 (HORIZONS-1)", "OBJECT_ID": "2003-044A", "EPOCH": "2025-12-01T16:31:32.035872", "MEAN_MOTION": 1.00271759, "ECCENTRICITY": 0.0002091, "INCLINATION": 0.907, "RA_OF_ASC_NODE": 86.6036, "ARG_OF_PERICENTER": 158.1978, "MEAN_ANOMALY": 283.8762, "EPHEMERIS_TYPE": 0, "CLASSIFICATION_TYPE": "U", "NORAD_CAT_ID": 27954, "ELEMENT_SET_NO": 999, "REV_AT_EPOCH": 4459, "BSTAR": 0, "MEAN_MOTION_DOT": 1.54e-06, "MEAN_MOTION_DDOT": 0}, "tle": {"line1": "1 27954U 03044A   25335.68856523  .00000154  00000+0  00000+0 0  9997", "line2": "2 27954   0.9070  86.6036 0002091 158.1978 283.8762  1.00271759 44595"}}, "geometry": {"type": "Point", "coordinates": [18.328848163141338, -0.8215268701235139]}}, {"type": "Feature", "properties": {"norad_id": 28358, "name": "INTELSAT 10-02", "group": "intelsat", "lat": 0.010584747648709765, "lon": 167.30850408448393, "alt_km": 35787.78589895946, "timestamp": "2025-12-02T06:27:52.688532+00:00", "meta": {"OBJECT_NAME": "INTELSAT 10-02", "OBJECT_ID": "2004-022A", "EPOCH": "2025-12-01T17:14:05.460000", "MEAN_MOTION": 1.00270385, "ECCENTRICITY": 0.0001102, "INCLINATION": 0.04, "RA_OF_ASC_NODE": 91.6394, "ARG_OF_PERICENTER": 182.5327, "MEAN_ANOMALY": 54.1897, "EPHEMERIS_TYPE": 0, "CLASSIFICATION_TYPE": "U", "NORAD_CAT_ID": 28358, "ELEMENT_SET_NO": 999, "REV_AT_EPOCH": 7857, "BSTAR": 0, "MEAN_MOTION_DOT": 1e-07, "MEAN_MOTION_DDOT": 0}, "tle": {"line1": "1 28358U 04022A   25335.71811875  .00000010  00000+0  00000+0 0  9999", "line2": "2 28358   0.0400  91.6394 0001102 182.5327  54.1897  1.00270385 78573"}}, "geometry": {"type": "Point", "coordinates": [167.30850408448393, 0.010584747648709765]}}, {"type": "Feature", "properties": {"norad_id": 28626, "name": "XM-3 (RHYTHM)", "group": "intelsat", "lat": -0.12740585067844604, "lon": -27.708441372658974, "alt_km": 36155.940810157605, "timestamp": "2025-12-02T06:27:52.688544+00:00", "meta": {"OBJECT_NAME": "XM-3 (RHYTHM)", "OBJECT_ID": "2005-008A", "EPOCH": "2025-12-01T16:19:10.717824", "MEAN_MOTION": 0.98955107, "ECCENTRICITY": 8.38e-05, "INCLINATION": 0.1433, "RA_OF_ASC_NODE": 80.6256, "ARG_OF_PERICENTER": 270.4663, "MEAN_ANOMALY": 131.2697, "EPHEMERIS_TYPE": 0, "CLASSIFICATION_TYPE": "U", "NORAD_CAT_ID": 28626, "ELEMENT_SET_NO": 999, "REV_AT_EPOCH": 4064, "BSTAR": 0, "MEAN_MOTION_DOT": -2.1e-06, "MEAN_MOTION_DDOT": 0}, "tle": {"line1": "1 28626U 05008A   25335.67998516 -.00000210  00000+0  00000+0 0  9998", "line2": "2 28626   0.1433  80.6256 0000838 270.4663 131.2697  0.98955107 40648"}}, "geometry": {"type": "Point", "coordinates": [-27.708441372658974, -0.12740585067844604]}}]}